0 IRIDIUM 33 DEB
1 36485U 97051WB  13282.43183058  .00003216  00000-0  16214-2 0  1659
2 36485 086.4572 173.3577 0139173 193.4015 166.3368 14.11152004201106
0 IRIDIUM 33 DEB
1 36485U 97051WB  13285.40999908  .00003332  00000-0  16802-2 0  1661
2 36485 086.4574 172.1796 0138985 184.0092 176.0242 14.11173100201524
0 IRIDIUM 33 DEB
1 36485U 97051WB  13287.11178330  .00003333  00000-0  16802-2 0  1671
2 36485 086.4574 171.5059 0138972 178.6596 181.4989 14.11184358201764
0 IRIDIUM 33 DEB
1 36485U 97051WB  13288.38811168  .00003513  00000-0  17723-2 0  1688
2 36485 086.4568 170.9999 0138418 174.5711 185.7150 14.11196004201940
0 IRIDIUM 33 DEB
1 36485U 97051WB  13289.94805691  .00003609  00000-0  18228-2 0  1693
2 36485 086.4573 170.3806 0137393 169.8924 190.5299 14.11208676202163
0 IRIDIUM 33 DEB
1 36485U 97051WB  13290.37349010  .00003871  00000-0  19576-2 0  1700
2 36485 086.4548 170.2133 0136458 168.4377 192.0258 14.11215526202226
0 IRIDIUM 33 DEB
1 36485U 97051WB  13291.93340584  .00004042  00000-0  20464-2 0  1710
2 36485 086.4528 169.5961 0135484 163.4382 197.1375 14.11230504202446
0 IRIDIUM 33 DEB
1 36485U 97051WB  13292.92607405  .00004246  00000-0  21432-2 0  1721
2 36485 086.4531 169.2006 0137949 160.7892 199.9220 14.11241614202589
0 IRIDIUM 33 DEB
1 36485U 97051WB  13293.91872307  .00004422  00000-0  22315-2 0  1734
2 36485 086.4529 168.8080 0138057 157.3794 203.3732 14.11252572202726
0 IRIDIUM 33 DEB
1 36485U 97051WB  13295.40769762  .00004492  00000-0  22662-2 0  1743
2 36485 086.4515 168.2181 0137963 152.3913 208.4730 14.11266846202936
